{"type": "FeatureCollection", "features": [{"type": "Feature", "geometry": {"type": "LineString", "coordinates": [[6.86947, 45.923807], [6.869827, 45.923694], [6.869801, 45.924032], [6.869783, 45.924399], [6.86977, 45.924666], [6.869759, 45.924917], [6.86976, 45.924981], [6.869808, 45.925228], [6.869795, 45.925328], [6.86969, 45.925329], [6.869696, 45.925373], [6.869589, 45.925387], [6.869562, 45.925407], [6.869395, 45.925434], [6.869103, 45.925481], [6.869122, 45.925529], [6.869208, 45.925744], [6.868807, 45.925828], [6.868424, 45.925917], [6.868289, 45.925952], [6.868205, 45.925964], [6.868104, 45.925953], [6.867892, 45.926139], [6.867752, 45.92616], [6.867811, 45.926225], [6.867863, 45.926427], [6.867908, 45.926567], [6.867833, 45.926609], [6.867818, 45.926756], [6.867866, 45.927003], [6.867878, 45.927159], [6.86786, 45.92727], [6.867846, 45.92737], [6.867798, 45.927452], [6.867482, 45.928226], [6.867446, 45.928249], [6.867251, 45.928288], [6.867121, 45.92835], [6.867195, 45.928397], [6.867461, 45.928529], [6.867629, 45.928565], [6.86779, 45.928588], [6.867713, 45.928754], [6.867735, 45.928851], [6.867737, 45.928976], [6.867689, 45.929047], [6.867431, 45.92908], [6.867222, 45.929147], [6.867297, 45.929196], [6.867372, 45.92939], [6.867474, 45.92955], [6.867544, 45.929722], [6.867549, 45.929909], [6.867603, 45.930162], [6.867716, 45.930405], [6.867871, 45.930957], [6.867812, 45.931173], [6.867737, 45.93133], [6.867598, 45.9313], [6.867603, 45.931491], [6.867576, 45.931688], [6.867582, 45.931856], [6.867625, 45.931987], [6.867552, 45.932024], [6.867536, 45.932097], [6.867531, 45.932124], [6.867574, 45.93226], [6.867582, 45.932408], [6.867574, 45.93274], [6.867619, 45.933037], [6.867637, 45.933076], [6.867724, 45.933169], [6.867757, 45.933216], [6.867802, 45.933325], [6.867885, 45.933486], [6.867899, 45.933592], [6.867881, 45.933672], [6.867889, 45.933705], [6.867918, 45.933731], [6.86798, 45.933859], [6.868024, 45.933918], [6.868077, 45.933964], [6.868376, 45.934305], [6.868597, 45.934515], [6.868731, 45.934672], [6.868815, 45.934805], [6.868889, 45.934966], [6.868958, 45.93506], [6.86899, 45.935116], [6.869041, 45.935288], [6.869151, 45.93554], [6.869267, 45.935741], [6.869325, 45.935801], [6.86939, 45.935855], [6.869406, 45.935882], [6.869402, 45.935914], [6.869322, 45.935952], [6.869391, 45.936067], [6.869452, 45.936318], [6.869524, 45.936473], [6.869524, 45.936509], [6.869514, 45.93654], [6.869493, 45.936572], [6.869459, 45.936599], [6.869282, 45.936675], [6.869208, 45.936713], [6.869085, 45.936793], [6.868916, 45.936922], [6.868832, 45.936973], [6.86865, 45.937146], [6.868475, 45.937295], [6.868349, 45.937459], [6.868272, 45.937654], [6.868247, 45.937749], [6.868207, 45.937953], [6.868209, 45.93811], [6.868196, 45.938136], [6.868172, 45.938155], [6.868142, 45.938168], [6.868112, 45.93817], [6.868072, 45.938163], [6.867983, 45.93813], [6.867922, 45.938096], [6.867792, 45.938006], [6.867743, 45.937961], [6.867661, 45.937854], [6.867632, 45.93783], [6.867595, 45.937819], [6.86756, 45.937817], [6.867502, 45.937836], [6.867481, 45.937857], [6.867423, 45.937976], [6.867311, 45.938137], [6.867293, 45.9382], [6.867295, 45.938237], [6.86735, 45.938367], [6.867374, 45.938462], [6.867374, 45.938623], [6.867364, 45.938787], [6.867347, 45.938914], [6.867323, 45.939079], [6.867239, 45.939207], [6.867226, 45.939278], [6.867259, 45.939346], [6.867377, 45.939485], [6.86754, 45.939584], [6.867573, 45.939629], [6.867545, 45.939666], [6.867483, 45.939684], [6.867248, 45.939702], [6.86707, 45.939693], [6.866818, 45.939608], [6.866732, 45.939585], [6.866672, 45.939592], [6.86665, 45.939625], [6.866646, 45.939667], [6.866901, 45.939915], [6.866895, 45.93996], [6.866844, 45.93997], [6.86679, 45.939969], [6.866234, 45.939803], [6.866094, 45.939784], [6.866017, 45.939807], [6.86595, 45.939901], [6.865982, 45.939953], [6.866139, 45.940006], [6.866197, 45.940033], [6.866204, 45.940074], [6.866158, 45.940102], [6.865969, 45.940128], [6.865785, 45.940143], [6.865658, 45.940133], [6.86559, 45.940093], [6.865495, 45.940005], [6.865429, 45.939989], [6.865384, 45.94001], [6.865331, 45.940115], [6.86535, 45.940236], [6.865406, 45.940341], [6.865718, 45.94048], [6.865931, 45.940524], [6.866182, 45.940553], [6.866255, 45.940567], [6.866312, 45.940605], [6.866435, 45.940744], [6.866498, 45.940809], [6.866553, 45.940854], [6.866652, 45.940911], [6.866752, 45.940956], [6.866953, 45.94103], [6.867172, 45.941134], [6.867298, 45.941179], [6.867321, 45.941196], [6.867324, 45.941216], [6.867297, 45.941238], [6.867242, 45.941249], [6.867182, 45.94124], [6.866952, 45.941186], [6.86687, 45.941177], [6.866711, 45.941174], [6.866635, 45.941165], [6.866517, 45.94114], [6.866406, 45.941102], [6.86627, 45.941064], [6.86621, 45.941054], [6.866045, 45.941044], [6.865931, 45.941052], [6.865826, 45.94108], [6.865704, 45.941123], [6.865661, 45.941157], [6.865648, 45.941191], [6.865677, 45.941217], [6.865738, 45.941228], [6.865892, 45.941218], [6.865979, 45.941218], [6.866064, 45.941245], [6.86611, 45.941274], [6.866399, 45.941522], [6.866493, 45.941577], [6.866616, 45.941623], [6.866728, 45.941647], [6.866874, 45.941692], [6.867224, 45.941889], [6.867316, 45.941915], [6.867411, 45.941932], [6.867505, 45.941936], [6.867626, 45.941921], [6.867688, 45.941923], [6.867728, 45.941938], [6.867744, 45.941959], [6.867724, 45.941992], [6.867656, 45.942017], [6.867363, 45.942091], [6.867228, 45.942104], [6.867104, 45.942097], [6.866994, 45.942076], [6.866808, 45.942008], [6.866717, 45.941995], [6.866569, 45.941999], [6.866341, 45.941988], [6.866108, 45.941991], [6.865808, 45.94204], [6.86563, 45.942027], [6.865148, 45.941917], [6.865097, 45.941909], [6.864993, 45.941908], [6.864901, 45.941917], [6.864292, 45.942026], [6.864127, 45.942058], [6.864053, 45.942083], [6.864006, 45.942116], [6.863989, 45.942172], [6.864, 45.942227], [6.864041, 45.942283], [6.86411, 45.942332], [6.864163, 45.942353], [6.864236, 45.942364], [6.864313, 45.942363], [6.864403, 45.942355], [6.864665, 45.942299], [6.864747, 45.94229], [6.864833, 45.94229], [6.864965, 45.942326], [6.865078, 45.942408], [6.865148, 45.942502], [6.865327, 45.942779], [6.865429, 45.942901], [6.865518, 45.942982], [6.865597, 45.943027], [6.865679, 45.943049], [6.865781, 45.94305], [6.865897, 45.94303], [6.866014, 45.942996], [6.866108, 45.942988], [6.86621, 45.943007], [6.866287, 45.943038], [6.866375, 45.943104], [6.866686, 45.943416], [6.866778, 45.943477], [6.86684, 45.943505], [6.866919, 45.943526], [6.867144, 45.943566], [6.867186, 45.943586], [6.867193, 45.943621], [6.867181, 45.943649], [6.867124, 45.94368], [6.867033, 45.943708], [6.8669, 45.943724], [6.866785, 45.943715], [6.866656, 45.943686], [6.866414, 45.943617], [6.866265, 45.943602], [6.866183, 45.943629], [6.865937, 45.943769], [6.865681, 45.943873], [6.865508, 45.94391], [6.865165, 45.943958], [6.865048, 45.943953], [6.864929, 45.943926], [6.86465, 45.943819], [6.864571, 45.943797], [6.864485, 45.94379], [6.864406, 45.943813], [6.864232, 45.943925], [6.864112, 45.94396], [6.863919, 45.943993], [6.863526, 45.944049], [6.863446, 45.94408], [6.863376, 45.944126], [6.863106, 45.944344], [6.863022, 45.944373], [6.862903, 45.944385], [6.862766, 45.944377], [6.862654, 45.944353], [6.862523, 45.94429], [6.862386, 45.944189], [6.861826, 45.943675], [6.861396, 45.943156], [6.861308, 45.943083], [6.861203, 45.943019], [6.861049, 45.942951], [6.860855, 45.942892], [6.860628, 45.942847], [6.860368, 45.942804], [6.8601, 45.94278], [6.859988, 45.942784], [6.859846, 45.942811], [6.859666, 45.942863], [6.85954, 45.942914], [6.859381, 45.943023], [6.859128, 45.943303], [6.858987, 45.943465], [6.858845, 45.943776], [6.858693, 45.943843], [6.858167, 45.943969], [6.85791, 45.944055], [6.857706, 45.944093], [6.857518, 45.9441], [6.857051, 45.944093], [6.856708, 45.9441], [6.856504, 45.944085], [6.856338, 45.944023], [6.856257, 45.943899], [6.856204, 45.943768], [6.856193, 45.943623], [6.856263, 45.94341], [6.85644, 45.943212], [6.856686, 45.942977], [6.856976, 45.9425], [6.85718, 45.942313], [6.85726, 45.942229], [6.857352, 45.942093], [6.857371, 45.942031], [6.857379, 45.941962], [6.85737, 45.941872], [6.857298, 45.941705], [6.85724, 45.941627], [6.85719, 45.941564], [6.857116, 45.941494], [6.85701, 45.941394], [6.856891, 45.941301], [6.856813, 45.941224], [6.856717, 45.941081], [6.856641, 45.940999], [6.856534, 45.940913], [6.856434, 45.940847], [6.856389, 45.940801], [6.856353, 45.940744], [6.856332, 45.940683], [6.856332, 45.940621], [6.856352, 45.94056], [6.856394, 45.940491], [6.856638, 45.940198], [6.856751, 45.94], [6.856788, 45.939806], [6.856778, 45.939624], [6.856735, 45.939497], [6.856638, 45.939336], [6.856531, 45.939236], [6.856456, 45.938904], [6.856397, 45.938777], [6.856116, 45.938593], [6.856029, 45.938524], [6.855988, 45.9385], [6.855952, 45.938491], [6.855907, 45.938491], [6.855852, 45.938505], [6.855797, 45.938534], [6.855475, 45.938756], [6.855388, 45.938819], [6.8553, 45.938899], [6.855246, 45.938958], [6.855209, 45.939015], [6.855132, 45.939174], [6.855031, 45.939266], [6.854965, 45.939307], [6.854875, 45.939343], [6.854765, 45.939373], [6.854387, 45.939419], [6.854298, 45.939418], [6.85422, 45.939401], [6.854153, 45.939367], [6.8541, 45.93933], [6.853786, 45.939025], [6.853693, 45.938895], [6.853651, 45.938859], [6.853622, 45.938844], [6.853651, 45.938859], [6.853693, 45.938895], [6.853786, 45.939025], [6.8541, 45.93933], [6.854153, 45.939367], [6.85422, 45.939401], [6.854298, 45.939418], [6.854387, 45.939419], [6.854765, 45.939373], [6.854875, 45.939343], [6.854965, 45.939307], [6.855031, 45.939266], [6.855132, 45.939174], [6.855209, 45.939015], [6.855246, 45.938958], [6.8553, 45.938899], [6.855388, 45.938819], [6.855475, 45.938756], [6.855797, 45.938534], [6.855852, 45.938505], [6.855907, 45.938491], [6.855952, 45.938491], [6.855988, 45.9385], [6.856029, 45.938524], [6.856116, 45.938593], [6.856397, 45.938777], [6.856456, 45.938904], [6.856531, 45.939236], [6.856638, 45.939336], [6.856735, 45.939497], [6.856778, 45.939624], [6.856788, 45.939806], [6.856751, 45.94], [6.856638, 45.940198], [6.856394, 45.940491], [6.856352, 45.94056], [6.856332, 45.940621], [6.856332, 45.940683], [6.856353, 45.940744], [6.856389, 45.940801], [6.856434, 45.940847], [6.856534, 45.940913], [6.856641, 45.940999], [6.856717, 45.941081], [6.856813, 45.941224], [6.856891, 45.941301], [6.85701, 45.941394], [6.857116, 45.941494], [6.85719, 45.941564], [6.85724, 45.941627], [6.857298, 45.941705], [6.85737, 45.941872], [6.857379, 45.941962], [6.857371, 45.942031], [6.857352, 45.942093], [6.85726, 45.942229], [6.85718, 45.942313], [6.856976, 45.9425], [6.856686, 45.942977], [6.85644, 45.943212], [6.856263, 45.94341], [6.856193, 45.943623], [6.856204, 45.943768], [6.856257, 45.943899], [6.856338, 45.944023], [6.856504, 45.944085], [6.856708, 45.9441], [6.857051, 45.944093], [6.857518, 45.9441], [6.857706, 45.944093], [6.85791, 45.944055], [6.858167, 45.943969], [6.858693, 45.943843], [6.858845, 45.943776], [6.858987, 45.943465], [6.859128, 45.943303], [6.859381, 45.943023], [6.85954, 45.942914], [6.859666, 45.942863], [6.859846, 45.942811], [6.859988, 45.942784], [6.8601, 45.94278], [6.860368, 45.942804], [6.860628, 45.942847], [6.860855, 45.942892], [6.861049, 45.942951], [6.861203, 45.943019], [6.861308, 45.943083], [6.861396, 45.943156], [6.861826, 45.943675], [6.862386, 45.944189], [6.862523, 45.94429], [6.862654, 45.944353], [6.862766, 45.944377], [6.862903, 45.944385], [6.863022, 45.944373], [6.863106, 45.944344], [6.863376, 45.944126], [6.863446, 45.94408], [6.863526, 45.944049], [6.863919, 45.943993], [6.864112, 45.94396], [6.864232, 45.943925], [6.864406, 45.943813], [6.864485, 45.94379], [6.864571, 45.943797], [6.86465, 45.943819], [6.864929, 45.943926], [6.865048, 45.943953], [6.865165, 45.943958], [6.865508, 45.94391], [6.865681, 45.943873], [6.865937, 45.943769], [6.866183, 45.943629], [6.866265, 45.943602], [6.866414, 45.943617], [6.866656, 45.943686], [6.866785, 45.943715], [6.8669, 45.943724], [6.867033, 45.943708], [6.867124, 45.94368], [6.867181, 45.943649], [6.867193, 45.943621], [6.867186, 45.943586], [6.867144, 45.943566], [6.866919, 45.943526], [6.86684, 45.943505], [6.866778, 45.943477], [6.866686, 45.943416], [6.866375, 45.943104], [6.866287, 45.943038], [6.86621, 45.943007], [6.866108, 45.942988], [6.866014, 45.942996], [6.865897, 45.94303], [6.865781, 45.94305], [6.865679, 45.943049], [6.865597, 45.943027], [6.865518, 45.942982], [6.865429, 45.942901], [6.865327, 45.942779], [6.865148, 45.942502], [6.865078, 45.942408], [6.864965, 45.942326], [6.864833, 45.94229], [6.864747, 45.94229], [6.864665, 45.942299], [6.864403, 45.942355], [6.864313, 45.942363], [6.864236, 45.942364], [6.864163, 45.942353], [6.86411, 45.942332], [6.864041, 45.942283], [6.864, 45.942227], [6.863989, 45.942172], [6.864006, 45.942116], [6.864053, 45.942083], [6.864127, 45.942058], [6.864292, 45.942026], [6.864901, 45.941917], [6.864993, 45.941908], [6.865097, 45.941909], [6.865148, 45.941917], [6.86563, 45.942027], [6.865808, 45.94204], [6.866108, 45.941991], [6.866341, 45.941988], [6.866569, 45.941999], [6.866717, 45.941995], [6.866808, 45.942008], [6.866994, 45.942076], [6.867104, 45.942097], [6.867228, 45.942104], [6.867363, 45.942091], [6.867656, 45.942017], [6.867724, 45.941992], [6.867744, 45.941959], [6.867728, 45.941938], [6.867826, 45.941903], [6.867954, 45.94187], [6.867975, 45.941879], [6.868001, 45.941923], [6.868108, 45.941982], [6.868191, 45.942007], [6.868278, 45.942065], [6.868315, 45.942103], [6.868339, 45.942117], [6.868464, 45.942164], [6.868486, 45.942244], [6.868504, 45.942268], [6.868545, 45.942284], [6.868647, 45.942284], [6.868691, 45.9423], [6.868768, 45.942308], [6.868905, 45.942388], [6.868983, 45.94245], [6.869, 45.942491], [6.868998, 45.942508], [6.868972, 45.942552], [6.868967, 45.942576], [6.868981, 45.942616], [6.869064, 45.942748], [6.869102, 45.942867], [6.869128, 45.942887], [6.86918, 45.942909], [6.869314, 45.943018], [6.869484, 45.943068], [6.869517, 45.943083], [6.869554, 45.943123], [6.869588, 45.94321], [6.869592, 45.94326], [6.869582, 45.943292], [6.86954, 45.943367], [6.869524, 45.943425], [6.869516, 45.943486], [6.869515, 45.943633], [6.869523, 45.943665], [6.869591, 45.943772], [6.869645, 45.943832], [6.869675, 45.943935], [6.869678, 45.94397], [6.869689, 45.943985], [6.869682, 45.943998], [6.86965, 45.944007], [6.869575, 45.944006], [6.869492, 45.944039], [6.869366, 45.944129], [6.869362, 45.944171], [6.869344, 45.944223], [6.869311, 45.944275], [6.869321, 45.944412], [6.869369, 45.944502], [6.869505, 45.944585], [6.869673, 45.944633], [6.869793, 45.944682], [6.869911, 45.944842], [6.869941, 45.944805], [6.869921, 45.944653], [6.869842, 45.944467], [6.869883, 45.94438], [6.869985, 45.944287], [6.870109, 45.944187], [6.870308, 45.943985], [6.870367, 45.943942], [6.870303, 45.943684], [6.870448, 45.94344], [6.870483, 45.943345], [6.870494, 45.943286], [6.870486, 45.943185], [6.870516, 45.94311], [6.870629, 45.943], [6.870696, 45.942947], [6.870705, 45.942922], [6.870697, 45.942864], [6.870664, 45.942759], [6.870668, 45.942699], [6.87062, 45.942629], [6.87053, 45.942538], [6.87026, 45.942369], [6.87019, 45.942261], [6.870157, 45.942184], [6.870162, 45.94209], [6.870188, 45.94205], [6.870163, 45.9419], [6.870129, 45.941808], [6.870082, 45.941767], [6.869898, 45.941658], [6.86984, 45.941605], [6.86981, 45.941561], [6.869776, 45.941508], [6.869725, 45.941419], [6.86973, 45.941349], [6.869708, 45.941268], [6.86965, 45.941162], [6.86958, 45.941106], [6.869553, 45.941057], [6.869543, 45.940995], [6.869511, 45.940895], [6.869509, 45.94075], [6.869491, 45.940723], [6.869367, 45.940614], [6.869318, 45.940538], [6.86933, 45.940475], [6.869356, 45.940447], [6.869312, 45.940347], [6.869312, 45.940236], [6.869406, 45.94005], [6.869416, 45.939992], [6.869389, 45.939924], [6.869409, 45.939854], [6.869404, 45.939804], [6.869371, 45.939785], [6.869324, 45.939772], [6.869201, 45.939773], [6.869157, 45.939787], [6.869087, 45.939783], [6.86894, 45.939755], [6.868755, 45.939709], [6.86878, 45.9397], [6.869121, 45.939691], [6.86957, 45.939605], [6.869623, 45.939582], [6.869666, 45.939578], [6.869647, 45.93956], [6.869623, 45.939553], [6.869472, 45.939564], [6.869245, 45.939547], [6.869086, 45.939501], [6.868873, 45.939503], [6.868776, 45.939491], [6.868588, 45.939434], [6.868479, 45.939416], [6.86825, 45.939448], [6.868118, 45.939437], [6.867998, 45.939436], [6.867838, 45.939449], [6.86769, 45.939424], [6.86761, 45.939379], [6.867565, 45.93932], [6.867437, 45.939274], [6.867452, 45.93918], [6.86751, 45.939104], [6.867503, 45.939024], [6.867347, 45.938914], [6.867364, 45.938787], [6.867374, 45.938623], [6.867374, 45.938462], [6.86735, 45.938367], [6.867295, 45.938237], [6.867293, 45.9382], [6.867311, 45.938137], [6.867423, 45.937976], [6.867481, 45.937857], [6.867502, 45.937836], [6.86756, 45.937817], [6.867595, 45.937819], [6.867632, 45.93783], [6.867661, 45.937854], [6.867743, 45.937961], [6.867792, 45.938006], [6.867922, 45.938096], [6.867983, 45.93813], [6.868072, 45.938163], [6.868112, 45.93817], [6.868142, 45.938168], [6.868172, 45.938155], [6.868196, 45.938136], [6.868209, 45.93811], [6.868207, 45.937953], [6.868247, 45.937749], [6.868272, 45.937654], [6.868349, 45.937459], [6.868475, 45.937295], [6.86865, 45.937146], [6.868832, 45.936973], [6.868916, 45.936922], [6.869085, 45.936793], [6.869208, 45.936713], [6.869282, 45.936675], [6.869459, 45.936599], [6.869493, 45.936572], [6.869514, 45.93654], [6.869524, 45.936509], [6.869524, 45.936473], [6.869452, 45.936318], [6.869391, 45.936067], [6.869322, 45.935952], [6.869402, 45.935914], [6.869406, 45.935882], [6.86939, 45.935855], [6.869325, 45.935801], [6.869267, 45.935741], [6.869151, 45.93554], [6.869041, 45.935288], [6.86899, 45.935116], [6.868958, 45.93506], [6.868889, 45.934966], [6.868815, 45.934805], [6.868731, 45.934672], [6.868597, 45.934515], [6.868376, 45.934305], [6.868077, 45.933964], [6.868024, 45.933918], [6.86798, 45.933859], [6.867918, 45.933731], [6.867889, 45.933705], [6.867881, 45.933672], [6.867899, 45.933592], [6.867885, 45.933486], [6.867802, 45.933325], [6.867757, 45.933216], [6.867724, 45.933169], [6.867637, 45.933076], [6.867619, 45.933037], [6.867574, 45.93274], [6.867582, 45.932408], [6.867574, 45.93226], [6.867531, 45.932124], [6.867536, 45.932097], [6.867552, 45.932024], [6.867625, 45.931987], [6.867582, 45.931856], [6.867576, 45.931688], [6.867603, 45.931491], [6.867598, 45.9313], [6.867737, 45.93133], [6.867812, 45.931173], [6.867871, 45.930957], [6.867716, 45.930405], [6.867603, 45.930162], [6.867549, 45.929909], [6.867544, 45.929722], [6.867474, 45.92955], [6.867372, 45.92939], [6.867297, 45.929196], [6.867222, 45.929147], [6.867431, 45.92908], [6.867689, 45.929047], [6.867737, 45.928976], [6.867735, 45.928851], [6.867713, 45.928754], [6.86779, 45.928588], [6.867906, 45.928604], [6.867919, 45.928578], [6.867942, 45.928556], [6.867975, 45.92854], [6.868013, 45.928532], [6.868052, 45.928533], [6.868203, 45.928439], [6.868237, 45.928423], [6.868599, 45.928255], [6.868821, 45.92817], [6.869156, 45.928043], [6.869202, 45.92803], [6.869277, 45.92801], [6.86932, 45.928108], [6.86965, 45.928733], [6.869612, 45.928765], [6.86964, 45.928846], [6.869802, 45.929104], [6.869831, 45.929176], [6.869825, 45.929399], [6.869833, 45.929437], [6.869952, 45.929545], [6.870265, 45.929843], [6.870333, 45.929815], [6.870397, 45.929884], [6.870329, 45.929921], [6.870302, 45.929929], [6.870453, 45.930075], [6.870572, 45.930178], [6.8707, 45.930332], [6.870756, 45.930419], [6.871107, 45.930756], [6.871296, 45.930902], [6.871313, 45.930875], [6.87134, 45.930868], [6.87139, 45.930872], [6.871439, 45.930896], [6.871514, 45.930968], [6.871575, 45.93096], [6.871617, 45.93095], [6.87168, 45.930907], [6.871753, 45.930866], [6.871821, 45.930829], [6.871888, 45.930812], [6.872015, 45.930785], [6.872087, 45.930773], [6.872148, 45.930747], [6.872172, 45.930731], [6.872202, 45.930716], [6.872267, 45.930709], [6.872317, 45.930776], [6.872352, 45.9308], [6.872396, 45.930812], [6.872441, 45.930813], [6.872484, 45.930805], [6.872542, 45.930782], [6.872604, 45.930743], [6.872663, 45.930728], [6.872734, 45.930732], [6.872854, 45.930814], [6.873349, 45.931407], [6.873478, 45.931374], [6.873546, 45.93137], [6.873629, 45.931586], [6.87385, 45.931825], [6.874244, 45.932149], [6.874718, 45.932498], [6.875085, 45.932781], [6.875287, 45.932984], [6.875942, 45.933579], [6.875964, 45.933599], [6.876255, 45.933863], [6.876426, 45.934019], [6.876605, 45.934213], [6.876687, 45.934465], [6.876786, 45.934722], [6.877139, 45.935237], [6.877419, 45.935539], [6.87744, 45.935597], [6.877642, 45.93584], [6.877914, 45.936271], [6.87802, 45.936425], [6.878224, 45.936629], [6.878278, 45.936704], [6.878332, 45.936682], [6.87855, 45.936656], [6.879111, 45.936594], [6.879885, 45.936509], [6.880054, 45.936491], [6.880197, 45.936475], [6.880183, 45.936643], [6.880224, 45.936785], [6.880335, 45.936944], [6.880462, 45.937091], [6.880642, 45.937235], [6.880901, 45.937378], [6.881061, 45.937427], [6.881247, 45.937475], [6.881461, 45.937509], [6.882725, 45.937614], [6.882886, 45.937627], [6.883227, 45.937656], [6.88351, 45.937696], [6.884483, 45.937861], [6.885088, 45.937999], [6.885789, 45.938184], [6.885581, 45.938377], [6.884883, 45.93835], [6.884813, 45.938406], [6.884883, 45.93835], [6.885581, 45.938377], [6.885789, 45.938184], [6.885088, 45.937999], [6.884483, 45.937861], [6.88351, 45.937696], [6.883227, 45.937656], [6.882886, 45.937627], [6.882725, 45.937614], [6.881461, 45.937509], [6.881247, 45.937475], [6.881061, 45.937427], [6.880901, 45.937378], [6.880642, 45.937235], [6.880462, 45.937091], [6.880335, 45.936944], [6.880224, 45.936785], [6.880183, 45.936643], [6.880197, 45.936475], [6.880054, 45.936491], [6.879885, 45.936509], [6.879111, 45.936594], [6.87855, 45.936656], [6.878332, 45.936682], [6.878278, 45.936704], [6.878224, 45.936629], [6.87802, 45.936425], [6.877914, 45.936271], [6.877642, 45.93584], [6.87744, 45.935597], [6.877419, 45.935539], [6.877139, 45.935237], [6.876786, 45.934722], [6.876687, 45.934465], [6.876605, 45.934213], [6.876426, 45.934019], [6.876255, 45.933863], [6.875964, 45.933599], [6.875942, 45.933579], [6.875287, 45.932984], [6.875085, 45.932781], [6.874718, 45.932498], [6.874244, 45.932149], [6.87385, 45.931825], [6.873629, 45.931586], [6.873546, 45.93137], [6.873575, 45.931291], [6.873592, 45.931224], [6.873614, 45.931157], [6.873725, 45.930994], [6.873795, 45.930871], [6.873825, 45.930813], [6.873859, 45.930763], [6.873945, 45.930748], [6.874001, 45.930724], [6.87404, 45.930682], [6.874214, 45.930407], [6.874254, 45.930354], [6.874287, 45.930324], [6.874252, 45.930204], [6.874274, 45.930145], [6.87433, 45.930112], [6.874984, 45.929878], [6.875041, 45.929916], [6.875142, 45.929864], [6.875336, 45.929746], [6.875544, 45.929652], [6.875783, 45.929407], [6.875864, 45.929235], [6.875931, 45.929112], [6.876026, 45.928814], [6.876019, 45.92873], [6.875984, 45.928625], [6.875876, 45.928396], [6.875683, 45.928203], [6.875105, 45.927589], [6.875149, 45.927575], [6.87516, 45.927572], [6.875181, 45.927565], [6.875229, 45.927547], [6.875347, 45.927481], [6.875405, 45.92742], [6.875428, 45.927386], [6.875473, 45.927392], [6.875517, 45.927387], [6.875555, 45.92737], [6.87559, 45.927327], [6.875591, 45.927302], [6.875639, 45.927294], [6.875717, 45.927271], [6.875752, 45.92726], [6.875846, 45.927233], [6.875987, 45.927176], [6.876472, 45.926964], [6.877235, 45.926603], [6.877749, 45.926373], [6.877915, 45.926308], [6.878711, 45.926082], [6.879144, 45.925974], [6.87934, 45.925937], [6.879772, 45.92587], [6.880509, 45.925777], [6.88062, 45.925769], [6.880745, 45.92578], [6.880951, 45.925828], [6.881019, 45.925829], [6.881331, 45.925803], [6.881504, 45.925776], [6.881714, 45.925732], [6.881773, 45.925719], [6.881804, 45.925706], [6.88181, 45.925693], [6.8817, 45.92557], [6.88167, 45.925467], [6.881619, 45.925464], [6.881582, 45.925279], [6.881636, 45.925122], [6.881774, 45.925174], [6.881889, 45.925199], [6.882034, 45.92521], [6.882459, 45.925196], [6.883021, 45.925351], [6.883424, 45.925535], [6.883693, 45.925682], [6.884039, 45.925794], [6.884077, 45.925823], [6.88412, 45.925889], [6.884229, 45.926153], [6.884317, 45.926243], [6.88434, 45.926288], [6.884354, 45.926455], [6.884366, 45.92651], [6.884386, 45.926548], [6.88447, 45.926633], [6.884747, 45.92684], [6.885302, 45.927405], [6.885566, 45.927568], [6.886406, 45.928243], [6.887178, 45.928686], [6.887543, 45.928753], [6.887905, 45.928825], [6.888089, 45.928803], [6.888265, 45.928836], [6.888554, 45.928948], [6.889304, 45.929399], [6.889706, 45.929726], [6.89005, 45.930013], [6.89008, 45.930037], [6.89062, 45.930258], [6.890881, 45.930424], [6.891049, 45.930503], [6.891208, 45.930533], [6.891328, 45.930527], [6.89147, 45.930321], [6.891529, 45.930191], [6.891567, 45.930136], [6.891632, 45.930131], [6.891716, 45.930155], [6.891764, 45.930236], [6.891783, 45.930288], [6.891836, 45.930371], [6.891862, 45.93044], [6.891921, 45.930473], [6.891991, 45.930458], [6.892023, 45.930388], [6.891973, 45.930317], [6.891998, 45.930279], [6.892033, 45.93027], [6.892073, 45.930282], [6.8922, 45.930438], [6.892362, 45.930647], [6.892558, 45.930805], [6.89273, 45.930888], [6.892897, 45.93092], [6.89304, 45.930975], [6.89317, 45.931048], [6.893594, 45.931473], [6.894408, 45.931899], [6.894499, 45.931983], [6.894539, 45.932057], [6.894565, 45.932073], [6.894603, 45.932074], [6.894634, 45.932061], [6.894638, 45.93204], [6.894618, 45.93194], [6.894483, 45.931739], [6.893957, 45.931055], [6.893921, 45.930997], [6.893917, 45.930944], [6.893929, 45.930921], [6.893947, 45.930908], [6.893987, 45.930899], [6.894026, 45.930905], [6.894068, 45.930924], [6.895096, 45.93172], [6.895187, 45.931737], [6.895084, 45.931569], [6.894679, 45.93065], [6.894565, 45.930065], [6.894605, 45.929888], [6.894549, 45.929716], [6.894294, 45.929235], [6.894225, 45.929148], [6.894294, 45.929235], [6.894549, 45.929716], [6.894605, 45.929888], [6.894565, 45.930065], [6.894679, 45.93065], [6.895084, 45.931569], [6.895187, 45.931737], [6.895096, 45.93172], [6.894068, 45.930924], [6.894026, 45.930905], [6.893987, 45.930899], [6.893947, 45.930908], [6.893929, 45.930921], [6.893917, 45.930944], [6.893921, 45.930997], [6.893957, 45.931055], [6.894483, 45.931739], [6.894618, 45.93194], [6.894638, 45.93204], [6.894634, 45.932061], [6.894603, 45.932074], [6.894565, 45.932073], [6.894539, 45.932057], [6.894499, 45.931983], [6.894408, 45.931899], [6.893594, 45.931473], [6.89317, 45.931048], [6.89304, 45.930975], [6.892897, 45.93092], [6.89273, 45.930888], [6.892558, 45.930805], [6.892362, 45.930647], [6.8922, 45.930438], [6.892073, 45.930282], [6.892033, 45.93027], [6.891998, 45.930279], [6.891973, 45.930317], [6.892023, 45.930388], [6.891991, 45.930458], [6.891921, 45.930473], [6.891862, 45.93044], [6.891836, 45.930371], [6.891783, 45.930288], [6.891764, 45.930236], [6.891716, 45.930155], [6.891632, 45.930131], [6.891567, 45.930136], [6.891529, 45.930191], [6.89147, 45.930321], [6.891328, 45.930527], [6.891208, 45.930533], [6.891049, 45.930503], [6.890881, 45.930424], [6.89062, 45.930258], [6.89008, 45.930037], [6.89005, 45.930013], [6.889706, 45.929726], [6.889304, 45.929399], [6.888554, 45.928948], [6.888265, 45.928836], [6.888089, 45.928803], [6.887905, 45.928825], [6.887543, 45.928753], [6.887178, 45.928686], [6.886406, 45.928243], [6.885566, 45.927568], [6.885302, 45.927405], [6.884747, 45.92684], [6.88447, 45.926633], [6.884386, 45.926548], [6.884366, 45.92651], [6.884354, 45.926455], [6.88434, 45.926288], [6.884317, 45.926243], [6.884229, 45.926153], [6.88412, 45.925889], [6.884077, 45.925823], [6.884039, 45.925794], [6.883693, 45.925682], [6.883424, 45.925535], [6.883021, 45.925351], [6.882459, 45.925196], [6.882034, 45.92521], [6.881889, 45.925199], [6.881774, 45.925174], [6.881636, 45.925122], [6.881256, 45.92496], [6.881156, 45.924931], [6.880929, 45.924843], [6.880792, 45.924824], [6.880707, 45.924817], [6.880641, 45.924819], [6.880512, 45.924861], [6.880403, 45.924806], [6.880043, 45.92479], [6.879962, 45.92469], [6.879934, 45.924663], [6.879813, 45.924606], [6.879734, 45.924597], [6.879547, 45.924589], [6.879379, 45.924599], [6.879354, 45.924615], [6.879336, 45.924599], [6.879246, 45.924584], [6.878615, 45.924246], [6.878442, 45.924165], [6.877892, 45.923884], [6.877742, 45.92381], [6.877771, 45.923865], [6.87768, 45.923861], [6.877261, 45.923596], [6.877208, 45.923633], [6.877097, 45.92368], [6.876926, 45.923517], [6.87665, 45.923366], [6.876361, 45.923201], [6.876256, 45.923159], [6.876149, 45.923159], [6.876093, 45.923157], [6.876086, 45.923097], [6.876072, 45.92306], [6.876044, 45.923023], [6.875998, 45.923], [6.875939, 45.922985], [6.875832, 45.92299], [6.875794, 45.922998], [6.875771, 45.922962], [6.875729, 45.922908], [6.875659, 45.922881], [6.875436, 45.922798], [6.87526, 45.922691], [6.875204, 45.922731], [6.875118, 45.922799], [6.874463, 45.9233], [6.874415, 45.923337], [6.874351, 45.923295], [6.87428, 45.923263], [6.873833, 45.922965], [6.873799, 45.922948], [6.873758, 45.922941], [6.87369, 45.922943], [6.873624, 45.922959], [6.8736, 45.922939], [6.873531, 45.922883], [6.873497, 45.922901], [6.873455, 45.922908], [6.873412, 45.922904], [6.873375, 45.922888], [6.873351, 45.922863], [6.873342, 45.922833], [6.873198, 45.922902], [6.873136, 45.922926], [6.872625, 45.923042], [6.87199, 45.923186], [6.871769, 45.923243], [6.871726, 45.92326], [6.87167, 45.923308], [6.87136, 45.923349], [6.871063, 45.9234], [6.870629, 45.923488], [6.870591, 45.923496], [6.870561, 45.923503], [6.870465, 45.923522], [6.870063, 45.923612], [6.869835, 45.923662], [6.869827, 45.923694], [6.86947, 45.923807]]}, "properties": {"heading": 18, "length_km": 21.271, "retrace": 0.709}}]}